[Satellite]
VERSION=1.1
NAME=SL-16 R/B
NICKNAME=SL-16 R/B
TLE1=1 28353U 04021B   19317.77002001 -.00000019  00000-0  15133-4 0  9994
TLE2=2 28353  71.0018  33.7737 0007023 292.6548  67.3831 14.14218385796511
STATUS=0
